1 99997U 00000    23244.00000000 -.00000000  00000-0  00000-0 0 00002
2 99997 098.1113 174.6870 0000614 193.0389 312.3619 14.64510000089008
